NORAD_CAT_ID,OBJECT_NAME,OBJECT_TYPE,EPOCH,MEAN_MOTION,ECCENTRICITY,INCLINATION,RA_OF_ASC_NODE,ARG_OF_PERICENTER,MEAN_ANOMALY,BSTAR,MEAN_MOTION_DOT,MEAN_MOTION_DDOT,TLE_LINE0,TLE_LINE1,TLE_LINE2,SEMIMAJOR_AXIS,PERIOD,APOGEE,PERIGEE,DECAYED
53178.0,STARLINK-4280,PAYLOAD,2023-11-26 07:45:06,15.0886165,0.0001868,53.2174,309.7382,79.2197,280.9006,0.0004857,7.455e-05,0.0,0 STARLINK-4280,1 53178U 22083AY  23330.32299767  .00007455  00000-0  48570-3 0  9993,2 53178  53.2174 309.7382 0001868  79.2197 280.9006 15.08861650 76017,6917.814,95.436,540.971,538.387,0.0
53178.0,STARLINK-4280,PAYLOAD,2023-11-27 04:25:09,15.08819986,0.0001871,53.2176,305.8741,86.3266,273.794,-0.00030009,-5.058e-05,0.0,0 STARLINK-4280,1 53178U 22083AY  23331.18413709 -.00005058  00000-0 -30009-3 0  9999,2 53178  53.2176 305.8741 0001871  86.3266 273.7940 15.08819986 76141,6917.942,95.439,541.101,538.512,0.0
53178.0,STARLINK-4280,PAYLOAD,2023-11-27 07:35:55,15.0882241,0.0001873,53.2179,305.2754,92.7198,267.4009,-0.00019418,-3.376e-05,0.0,0 STARLINK-4280,1 53178U 22083AY  23331.31661726 -.00003376  00000-0 -19418-3 0  9990,2 53178  53.2179 305.2754 0001873  92.7198 267.4009 15.08822410 75533,6917.934,95.439,541.095,538.503,0.0
53178.0,STARLINK-4280,PAYLOAD,2023-11-28 02:40:32,15.088419,0.0001858,53.2185,301.709,79.7345,280.3857,0.00034811,5.257e-05,0.0,0 STARLINK-4280,1 53178U 22083AY  23332.11149207  .00005257  00000-0  34811-3 0  9996,2 53178  53.2185 301.7090 0001858  79.7345 280.3857 15.08841900 76289,6917.875,95.437,541.025,538.454,0.0
53178.0,STARLINK-4280,PAYLOAD,2023-11-28 05:51:18,15.08859161,0.0001982,53.2185,301.1142,87.8099,272.312,0.00080362,0.00012531,0.0,0 STARLINK-4280,1 53178U 22083AY  23332.24396874  .00012531  00000-0  80362-3 0  9999,2 53178  53.2185 301.1142 0001982  87.8099 272.3120 15.08859161 76300,6917.822,95.436,541.058,538.316,0.0
53178.0,STARLINK-4280,PAYLOAD,2023-11-28 21:45:10,15.08845845,0.000196,53.2179,298.1424,104.2783,255.8427,0.00028959,4.324e-05,0.0,0 STARLINK-4280,1 53178U 22083AY  23332.90637524  .00004324  00000-0  28959-3 0  9997,2 53178  53.2179 298.1424 0001960 104.2783 255.8427 15.08845845 75771,6917.863,95.437,541.083,538.372,0.0
53178.0,STARLINK-4280,PAYLOAD,2023-11-29 04:06:43,15.08846984,0.0002045,53.2182,296.953,92.6448,267.4778,0.00031133,4.671e-05,0.0,0 STARLINK-4280,1 53178U 22083AY  23333.17133366  .00004671  00000-0  31133-3 0  9995,2 53178  53.2182 296.9530 0002045  92.6448 267.4778 15.08846984 76440,6917.859,95.437,541.139,538.309,0.0
53178.0,STARLINK-4280,PAYLOAD,2023-11-29 07:17:29,15.08857618,0.0001851,53.2188,296.3584,103.9598,256.16,0.00046157,7.069e-05,0.0,0 STARLINK-4280,1 53178U 22083AY  23333.30380806  .00007069  00000-0  46157-3 0  9999,2 53178  53.2188 296.3584 0001851 103.9598 256.1600 15.08857618 76462,6917.827,95.436,540.972,538.411,0.0
53178.0,STARLINK-4280,PAYLOAD,2023-11-30 03:57:30,15.08845187,0.000211,53.2185,292.4921,104.9137,255.2089,0.0001801,2.58e-05,0.0,0 STARLINK-4280,1 53178U 22083AY  23334.16493260  .00002580  00000-0  18010-3 0  9993,2 53178  53.2185 292.4921 0002110 104.9137 255.2089 15.08845187 76593,6917.865,95.437,541.189,538.27,0.0
53178.0,STARLINK-4280,PAYLOAD,2023-12-01 03:48:17,15.08842768,0.000185,53.2182,288.0288,102.859,257.2609,0.00025644,3.796e-05,0.0,0 STARLINK-4280,1 53178U 22083AY  23335.15853419  .00003796  00000-0  25644-3 0  9990,2 53178  53.2182 288.0288 0001850 102.8590 257.2609 15.08842768 76746,6917.872,95.437,541.017,538.457,0.0
53178.0,STARLINK-4280,PAYLOAD,2023-12-02 02:03:40,15.08881613,0.0001987,53.2188,283.8667,107.0752,253.0458,0.0013204,0.00020813,0.0,0 STARLINK-4280,1 53178U 22083AY  23336.08588745  .00020813  00000-0  13204-2 0  9997,2 53178  53.2188 283.8667 0001987 107.0752 253.0458 15.08881613 76887,6917.753,95.435,540.993,538.244,0.0
53178.0,STARLINK-4280,PAYLOAD,2023-12-03 03:29:51,15.08825397,0.0001666,53.2173,279.1121,112.035,248.0819,-0.00025367,-4.321e-05,0.0,0 STARLINK-4280,1 53178U 22083AY  23337.14574026 -.00004321  00000-0 -25367-3 0  9994,2 53178  53.2173 279.1121 0001666 112.0350 248.0819 15.08825397 77049,6917.925,95.438,540.943,538.637,0.0
53178.0,STARLINK-4280,PAYLOAD,2023-12-04 03:20:39,15.08841633,0.0001656,53.2168,274.6527,110.4064,249.7106,0.00013442,1.852e-05,0.0,0 STARLINK-4280,1 53178U 22083AY  23338.13934266  .00001852  00000-0  13442-3 0  9995,2 53178  53.2168 274.6527 0001656 110.4064 249.7106 15.08841633 77190,6917.875,95.437,540.886,538.595,0.0
53178.0,STARLINK-4280,PAYLOAD,2023-12-04 04:56:01,15.08843234,0.0001799,53.2172,274.3515,115.6921,244.4257,0.00020146,2.92e-05,0.0,0 STARLINK-4280,1 53178U 22083AY  23338.20557688  .00002920  00000-0  20146-3 0  9998,2 53178  53.2172 274.3515 0001799 115.6921 244.4257 15.08843234 76575,6917.871,95.437,540.98,538.491,0.0
53178.0,STARLINK-4280,PAYLOAD,2023-12-04 19:14:30,15.08843723,0.0001911,53.2178,271.6773,115.3693,244.7497,0.00044602,6.818e-05,0.0,0 STARLINK-4280,1 53178U 22083AY  23338.80174476  .00006818  00000-0  44602-3 0  9997,2 53178  53.2178 271.6773 0001911 115.3693 244.7497 15.08843723 76668,6917.869,95.437,541.056,538.412,0.0
53178.0,STARLINK-4280,PAYLOAD,2023-12-05 04:46:49,15.08855789,0.0001733,53.2165,269.8946,100.3494,259.7693,0.00051359,7.899e-05,0.0,0 STARLINK-4280,1 53178U 22083AY  23339.19917977  .00007899  00000-0  51359-3 0  9998,2 53178  53.2165 269.8946 0001733 100.3494 259.7693 15.08855789 77356,6917.832,95.437,540.896,538.498,0.0
53178.0,STARLINK-4280,PAYLOAD,2023-12-05 19:05:17,15.08850841,0.0001999,53.2166,267.2192,98.0325,262.0894,0.00018349,2.634e-05,0.0,0 STARLINK-4280,1 53178U 22083AY  23339.79534078  .00002634  00000-0  18349-3 0  9995,2 53178  53.2166 267.2192 0001999  98.0325 262.0894 15.08850841 77446,6917.847,95.437,541.095,538.329,0.0
53178.0,STARLINK-4280,PAYLOAD,2023-12-06 03:02:15,15.08782459,0.0001507,53.2176,265.731,88.419,271.6974,-0.0012042,-0.00019371,0.0,0 STARLINK-4280,1 53178U 22083AY  23340.12656619 -.00019371  00000-0 -12042-2 0  9991,2 53178  53.2176 265.7310 0001507  88.4190 271.6974 15.08782459 77499,6918.056,95.441,540.964,538.879,0.0
53178.0,STARLINK-4280,PAYLOAD,2023-12-07 01:17:37,15.08861243,0.0001677,53.2185,261.5676,82.7151,277.4032,0.00089843,0.00014048,0.0,0 STARLINK-4280,1 53178U 22083AY  23341.05390915  .00014048  00000-0  89843-3 0  9996,2 53178  53.2185 261.5676 0001677  82.7151 277.4032 15.08861243 77634,6917.815,95.436,540.841,538.52,0.0
53178.0,STARLINK-4280,PAYLOAD,2023-12-07 04:28:23,15.08861052,0.0001707,53.2185,260.9728,77.7833,282.335,0.00086959,0.00013587,0.0,0 STARLINK-4280,1 53178U 22083AY  23341.18638853  .00013587  00000-0  86959-3 0  9998,2 53178  53.2185 260.9728 0001707  77.7833 282.3350 15.08861052 77029,6917.816,95.436,540.862,538.5,0.0
53178.0,STARLINK-4280,PAYLOAD,2023-12-07 18:46:52,15.08846013,0.0001069,53.2186,258.2981,86.0875,274.024,0.00041214,6.278e-05,0.0,0 STARLINK-4280,1 53178U 22083AY  23341.78255111  .00006278  00000-0  41214-3 0  9990,2 53178  53.2186 258.2981 0001069  86.0875 274.0240 15.08846013 77746,6917.862,95.437,540.467,538.987,0.0
53178.0,STARLINK-4280,PAYLOAD,2023-12-09 18:28:25,15.0884658,6.18e-05,53.2189,249.3771,33.5762,326.5269,0.00010363,1.362e-05,0.0,0 STARLINK-4280,1 53178U 22083AY  23343.76974258  .00001362  00000-0  10363-3 0  9990,2 53178  53.2189 249.3771 0000618  33.5762 326.5269 15.08846580 78045,6917.86,95.437,540.153,539.298,0.0
53178.0,STARLINK-4280,PAYLOAD,2023-12-10 04:00:44,15.08849532,8.26e-05,53.2183,247.5941,65.5432,294.5646,0.00018428,2.647e-05,0.0,0 STARLINK-4280,1 53178U 22083AY  23344.16718011  .00002647  00000-0  18428-3 0  9995,2 53178  53.2183 247.5941 0000826  65.5432 294.5646 15.08849532 77477,6917.851,95.437,540.288,539.145,0.0
53178.0,STARLINK-4280,PAYLOAD,2023-12-10 21:29:59,15.08837207,0.0001694,53.2181,244.3206,105.665,254.4529,-1.2822e-05,-4.92e-06,0.0,0 STARLINK-4280,1 53178U 22083AY  23344.89582429 -.00000492  00000-0 -12822-4 0  9998,2 53178  53.2181 244.3206 0001694 105.6650 254.4529 15.08837207 77589,6917.889,95.438,540.926,538.582,0.0
53178.0,STARLINK-4280,PAYLOAD,2023-12-10 23:05:22,15.08838378,0.0001629,53.2173,244.0232,103.2956,256.8218,-1.6038e-05,-5.43e-06,0.0,0 STARLINK-4280,1 53178U 22083AY  23344.96206400 -.00000543  00000-0 -16038-4 0  9998,2 53178  53.2173 244.0232 0001629 103.2956 256.8218 15.08838378 78220,6917.885,95.438,540.877,538.623,0.0
53178.0,STARLINK-4280,PAYLOAD,2023-12-11 22:56:09,15.08842628,0.0001554,53.2166,239.561,106.4558,253.6605,0.00013892,1.924e-05,0.0,0 STARLINK-4280,1 53178U 22083AY  23345.95566281  .00001924  00000-0  13892-3 0  9990,2 53178  53.2166 239.5610 0001554 106.4558 253.6605 15.08842628 77745,6917.872,95.437,540.812,538.662,0.0
53178.0,STARLINK-4280,PAYLOAD,2023-12-12 00:31:32,15.08845405,0.0001426,53.2164,239.2644,98.2932,261.8222,0.00015258,2.142e-05,0.0,0 STARLINK-4280,1 53178U 22083AY  23346.02190115  .00002142  00000-0  15258-3 0  9999,2 53178  53.2164 239.2644 0001426  98.2932 261.8222 15.08845405 78382,6917.864,95.437,540.715,538.742,0.0
53178.0,STARLINK-4280,PAYLOAD,2023-12-12 22:46:57,15.08823714,0.000164,53.2175,235.1073,76.9149,283.2026,0.00036041,5.45e-05,0.0,0 STARLINK-4280,1 53178U 22083AY  23346.94927298  .00005450  00000-0  36041-3 0  9998,2 53178  53.2175 235.1073 0001640  76.9149 283.2026 15.08823714 77890,6917.93,95.439,540.93,538.661,0.0
53178.0,STARLINK-4280,PAYLOAD,2023-12-13 00:22:20,15.08820461,0.0001691,53.2176,234.8089,75.3841,284.7338,0.00042358,6.456e-05,0.0,0 STARLINK-4280,1 53178U 22083AY  23347.01551405  .00006456  00000-0  42358-3 0  9995,2 53178  53.2176 234.8089 0001691  75.3841 284.7338 15.08820461 78532,6917.94,95.439,540.975,538.635,0.0
53178.0,STARLINK-4280,PAYLOAD,2023-12-13 22:37:43,15.08844151,0.0001775,53.2178,230.6455,69.7945,290.3238,5.9929e-05,6.66e-06,0.0,0 STARLINK-4280,1 53178U 22083AY  23347.94286606  .00000666  00000-0  59929-4 0  9995,2 53178  53.2178 230.6455 0001775  69.7945 290.3238 15.08844151 78040,6917.868,95.437,540.961,538.505,0.0
